[
  {
    "name": "PLEIADES NEO 3",
    "line1": "1 48268U 21034A   26023.32848333  .00000481  00000+0  67770-4 0  9998",
    "line2": "2 48268  97.8941 100.1737 0001295  96.1194 264.0166 14.81662733256205",
    "catNr": 48268
  },
  {
    "name": "PLEIADES NEO 4",
    "line1": "1 49070U 21073E   26023.36223045 -.00000263  00000+0 -26853-4 0  9991",
    "line2": "2 49070  97.8947 100.2023 0001218  99.4224 260.7127 14.81672236239926",
    "catNr": 49070
  }
]